YUBILEINY (RS30)        
1 32953U 08025A   26149.18612154 -.00000003  00000+0 -92760-4 0  9999
2 32953  82.5060   7.2617 0019690 356.0697   4.0225 12.43178335817331
KKS-1 (KISEKI)          
1 33499U 09002H   26149.16334914  .00001680  00000+0  21318-3 0  9994
2 33499  98.1196  71.3045 0007939   3.0637 357.0623 14.83066822933372
SWISSCUBE               
1 35932U 09051B   26149.14837830  .00001189  00000+0  24460-3 0  9990
2 35932  98.4051  56.7045 0005418 275.1391  84.9192 14.62439178886374
BEESAT-1                
1 35933U 09051C   26148.53185464  .00001010  00000+0  21272-3 0  9993
2 35933  98.3980  55.7535 0004066 297.3051  62.7735 14.61683338886314
ITUPSAT1                
1 35935U 09051E   26149.19070044  .00000943  00000+0  20482-3 0  9991
2 35935  98.4065  55.6345 0006392 304.9971  55.0628 14.60407838885963
XIWANG-1 (HOPE-1)       
1 36122U 09072B   26149.16810419 -.00000122  00000+0 -20239-3 0  9999
2 36122 100.4010 103.3050 0006851 279.2783  80.7555 13.16437737790505
O/OREOS (USA 219)       
1 37224U 10062C   26148.97530128  .00002814  00000+0  27167-3 0  9993
2 37224  71.9690 123.8535 0012427 105.3566 254.8979 14.93647987113772
JUGNU                   
1 37839U 11058B   26149.11657522  .00000451  00000+0  95951-4 0  9998
2 37839  19.9614  64.2823 0018516 225.3499 286.8885 14.13770643756326
SRMSAT                  
1 37841U 11058D   26149.20598954  .00000403  00000+0  75010-4 0  9995
2 37841  19.9700 174.3602 0011754 356.3676  69.7762 14.11571131755131
STRAND-1                
1 39090U 13009E   26148.97956881  .00000332  00000+0  12617-3 0  9995
2 39090  98.3916 329.6875 0007458 291.6444  68.3948 14.37150434694305
ZACUBE-1 (TSHEPISOSAT)  
1 39417U 13066B   26149.14307523  .00005936  00000+0  46166-3 0  9995
2 39417  97.8103 111.3764 0040082 315.2851  44.5142 15.01032492677878
GOMX-1                  
1 39430U 13066Q   26149.18729235  .00002813  00000+0  42559-3 0  9995
2 39430  97.6493 350.8494 0129725 138.0297 223.0940 14.69374091667124
CUBEBUG-2 (LO-74)       
1 39440U 13066AA  26149.10507014  .00004774  00000+0  44271-3 0  9998
2 39440  97.8895  98.0066 0059396  90.6429 270.1597 14.93587557674146
FUNCUBE-1 (AO-73)       
1 39444U 13066AE  26149.16258066  .00008603  00000+0  53757-3 0  9992
2 39444  97.8262 120.2160 0034412 268.4661  91.2625 15.09219309676798
UWE-3                   
1 39446U 13066AG  26148.83096380  .00007000  00000+0  60054-3 0  9994
2 39446  97.8693 104.7782 0050043  26.5305 333.8462 14.96842872674683
UNISAT-6                
1 40012U 14033C   26148.97070866  .00004679  00000+0  50422-3 0  9993
2 40012  97.7852 302.0255 0046305 130.8498 229.6747 14.88119194643304
DUCHIFAT-1              
1 40021U 14033M   26148.68263024  .00108977  00000+0  13057-2 0  9999
2 40021  98.0488 205.1642 0005711 150.6869 209.4708 15.60561627652704
QB50P1                  
1 40025U 14033R   26148.96942856  .00011419  00000+0  56585-3 0  9999
2 40025  98.0965 158.7725 0007076 296.0916  63.9588 15.17922306650116
LILACSAT-2              
1 40908U 15049K   26149.11223638  .00022124  00000+0  38553-3 0  9995
2 40908  97.4668 185.2363 0005793 336.7977  23.3013 15.50740860592797
FOX-1A (AO-85)          
1 40967U 15058D   26148.96732021  .00004217  00000+0  37865-3 0  9991
2 40967  64.7764 338.7088 0129586  64.1455 297.2953 14.90849359110703
CAS-2T & KS-1Q          
1 41847U 16066G   26149.19323339  .00001718  00000+0  24950-3 0  9997
2 41847  98.3824 225.1455 0341928 187.0076 172.6269 14.44626011502054
RADFXSAT (FOX-1B)       
1 43017U 17073E   26149.08937531  .00013548  00000+0  58993-3 0  9998
2 43017  97.4741  16.6986 0152668  35.2083 325.9118 15.12335369462508
DIWATA-2B               
1 43678U 18084H   26149.16325976  .00002052  00000+0  16857-3 0  9998
2 43678  98.1142 344.5506 0011737 234.4995 125.5133 15.00346935413360
ES'HAIL 2               
1 43700U 18090A   26148.51188272  .00000154  00000+0  00000+0 0  9995
2 43700   0.0155 298.2229 0001907 160.0872 357.8371  1.00274787 27483
FOX-1CLIFF (AO-95)      
1 43770U 18099N   26149.13331420  .00015161  00000+0  58677-3 0  9996
2 43770  97.4400 209.4548 0009879  62.7363 297.4880 15.26242853410314
ITASAT                  
1 43786U 18099AE  26148.65354541  .00008478  00000+0  40994-3 0  9994
2 43786  97.4043 200.5573 0014008  65.5105 294.7588 15.18767796409940
JY1SAT (JO-97)          
1 43803U 18099AX  26148.45249796  .00021394  00000+0  67363-3 0  9998
2 43803  97.4144 211.2270 0004799 356.8750   3.2461 15.32936130410607
UWE-4                   
1 43880U 18111E   26148.53214294  .00041738  00000+0  88982-3 0  9996
2 43880  97.5861  76.0364 0009322  49.7202 310.4860 15.44751526407741
TIANYAN 01              
1 44881U 19093C   26149.19699942  .00000333  00000+0  43642-4 0  9999
2 44881  97.7538 221.8920 0014325 144.4357 215.7816 14.86480467348590
RS-44 & BREEZE-KM R/B   
1 44909U 19096E   26149.00704422  .00000042  00000+0  12127-3 0  9993
2 44909  82.5223 352.4530 0217294 188.9576 170.7623 12.79748523299892
SALSAT                  
1 46495U 20068K   26148.97866382  .00009953  00000+0  35057-3 0  9992
2 46495  97.8847 150.8789 0010136  20.8037 339.3613 15.29479446312423
XW-3 (CAS-9)            
1 50466U 21131B   26149.24188814  .00000667  00000+0  21958-3 0  9993
2 50466  98.4972 241.7348 0004881 142.5332 217.6198 14.41337183232389
GREENCUBE (IO-117)      
1 53109U 22080E   26148.72974641 -.00000003  00000+0  00000+0 0  9993
2 53109  70.1435 305.0137 0008866 294.2205  65.7528  6.42583271 90810
UMKA 1 (RS40S)          
1 57172U 23091G   26149.14318561  .00007713  00000+0  35458-3 0  9993
2 57172  97.5065 207.9158 0012969 178.8924 181.2342 15.20566113161115
CUBESX-HSE 3 (RS42S)    
1 57178U 23091N   26149.15393641  .00017558  00000+0  59303-3 0  9995
2 57178  97.5107 214.5072 0011795 153.7238 206.4603 15.30665094161516
MONITOR-3 (RS58S)       
1 57180U 23091Q   26149.13706448  .00014386  00000+0  53745-3 0  9999
2 57180  97.5098 212.4481 0012511 160.5385 199.6334 15.27402121161380
MONITOR-4 (RS57S)       
1 57182U 23091S   26149.18278632  .00015087  00000+0  56170-3 0  9999
2 57182  97.5092 212.4642 0012496 160.7263 199.4451 15.27502975161391
MONITOR-2 (RS39S)       
1 57184U 23091U   26149.14082316  .00006115  00000+0  29749-3 0  9993
2 57184  97.5087 207.5484 0011561 171.0521 189.0922 15.18706043161064
SVYATOBOR 1 (RS60S)     
1 57187U 23091X   26149.17985682  .00012839  00000+0  49739-3 0  9998
2 57187  97.5103 212.8957 0010430 152.0898 208.0902 15.26244737161415
VIZARD-METEO (RS38S)    
1 57189U 23091Z   26149.18645302  .00021657  00000+0  63164-3 0  9999
2 57189  97.5105 218.2995 0008722 133.9582 226.2382 15.35337912161771
POLYTECH-UNIVERSE 3 (R*)
1 57191U 23091AB  26149.17052578  .00007177  00000+0  34615-3 0  9998
2 57191  97.5063 207.0826 0015363 189.6870 170.4071 15.18904865161068
UTMN 2 (RS27S)          
1 57203U 23091AP  26149.18202279  .00017647  00000+0  58087-3 0  9990
2 57203  97.5101 216.1460 0009350 140.2118 219.9810 15.31521602161639
KUZGTU 1 (RS47S)        
1 57217U 23091AV  26149.19390777  .00017218  00000+0  60535-3 0  9992
2 57217  97.5079 213.4863 0011897 157.1026 203.0747 15.29362536161470
SONATE-2                
1 59112U 24043Q   26148.93412269  .00045612  00000+0  62680-3 0  9990
2 59112  97.5509 298.1741 0006015 264.7797  95.2771 15.57157841124890
MESAT1                  
1 60209U 24125G   26149.08128387  .00067324  00000+0  79754-3 0  9996
2 60209  97.2320   6.1562 0008090 285.3392  74.6971 15.60990844106581
OOV-CUBE (TUBSAT-30)    
1 60240U 24128F   26148.95819794  .00003736  00000+0  28779-3 0  9996
2 60240  61.9958 292.6182 0047080 129.5569 230.9696 15.02666240103223
COLIBRI-S (RS67S)       
1 61746U 24199M   26149.17799786  .00027826  00000+0  55426-3 0  9994
2 61746  97.3026  22.8689 0008028   3.7215 356.4093 15.46836324134475
HORS 3 (RS81S)          
1 61753U 24199U   26149.16162612  .00043406  00000+0  68150-3 0  9993
2 61753  97.3011  24.6411 0006119  14.5034 345.6394 15.53523666134607
HORS 4 (RS82S)          
1 61754U 24199V   26149.17679985  .00058880  00000+0  78984-3 0  9999
2 61754  97.2958  25.7420 0004894  10.2269 349.9085 15.57755407134686
ARCTICSAT 1 (RS74S)     
1 61762U 24199AD  26149.15420719  .00505420  10409-3  13952-2 0  9993
2 61762  97.2867  31.8179 0003228 177.4987 182.6305 15.93881571135079
SIT-2086                
1 61764U 24199AF  26149.18121120  .00044969  00000+0  75516-3 0  9995
2 61764  97.2975  25.2026 0005895 350.3717   9.7422 15.51639849131487
HYPERVIEW 1G (RS66S)    
1 61772U 24199AP  26149.17334741  .00132281  00000+0  10491-2 0  9993
2 61772  97.2918  27.9998 0003655   8.6009 351.5316 15.70875199131682
ALTAIR (RS65S)          
1 61779U 24199AW  26149.16463544  .00009672  00000+0  27194-3 0  9999
2 61779  97.3058  18.6446 0013324  22.9145 337.2692 15.36622076134197
ASRTU-1 (AO-123)        
1 61781U 24199AY  26149.13645933  .00010158  00000+0  29701-3 0  9990
2 61781  97.3030  17.9812 0014510  24.5523 335.6409 15.35361791131003
SAMSAT-IONOSPHERE (RS7*)
1 61784U 24199BB  26149.16159398  .00054428  00000+0  78458-3 0  9992
2 61784  97.2980  24.6240 0007988   7.6351 352.5023 15.55805702134607
RTU MIREA 1 (RS51S)     
1 61785U 24199BC  26149.16156300  .00066368  00000+0  85313-3 0  9997
2 61785  97.2971  25.3637 0007494   4.4718 355.6604 15.58845740131504
TEVEL2-4                
1 63213U 25052D   26149.20315249  .00024260  00000+0  74158-3 0  9998
2 63213  97.3937  45.5713 0003640 139.6545 220.4968 15.33858195 67200
TEVEL2-5                
1 63214U 25052E   26149.15633883  .00022741  00000+0  69908-3 0  9999
2 63214  97.3928  45.4775 0003537 140.4500 219.7002 15.33693415 67194
TEVEL2-6                
1 63215U 25052F   26149.16821191  .00023060  00000+0  70962-3 0  9999
2 63215  97.3932  45.4738 0003665 139.6902 220.4612 15.33656086 67196
